IRIDIUM 144             
1 43249U 18030A   24129.82337235  .00000055  00000+0  12564-4 0  9996
2 43249  86.3965 251.9051 0002056  95.9014 264.2416 14.34218041319865
IRIDIUM 149             
1 43250U 18030B   24129.41110269  .00000443  00000+0  15104-3 0  9992
2 43250  86.3965 252.0530 0002128  98.0939 262.0498 14.34221362319823
IRIDIUM 157             
1 43251U 18030C   24129.84874320  .00000111  00000+0  32686-4 0  9992
2 43251  86.3968 251.9061 0002500  97.2972 262.8508 14.34218816319860
IRIDIUM 140             
1 43252U 18030D   24129.86776920  .00000293  00000+0  97602-4 0  9992
2 43252  86.3966 251.9128 0001823  94.9135 265.2269 14.34219376319925
IRIDIUM 145             
1 43253U 18030E   24129.85508495  .00000406  00000+0  13777-3 0  9998
2 43253  86.3967 251.8918 0001872 103.2691 256.8714 14.34218989319850
IRIDIUM 146             
1 43254U 18030F   24129.83605554  .00000429  00000+0  14624-3 0  9998
2 43254  86.3967 251.9147 0001962  98.5035 261.6383 14.34220131319863
IRIDIUM 148             
1 43255U 18030G   24129.73457592  .00000251  00000+0  82468-4 0  9990
2 43255  86.3968 251.9885 0002286 102.0811 258.0641 14.34219471319881
IRIDIUM 142             
1 43256U 18030H   24130.05170568  .00000018  00000+0 -47865-6 0  9999
2 43256  86.3965 251.7729 0002077 102.4800 257.6628 14.34218036319891
